NORAD_CAT_ID,OBJECT_NAME,OBJECT_TYPE,EPOCH,MEAN_MOTION,ECCENTRICITY,INCLINATION,RA_OF_ASC_NODE,ARG_OF_PERICENTER,MEAN_ANOMALY,BSTAR,MEAN_MOTION_DOT,MEAN_MOTION_DDOT,TLE_LINE0,TLE_LINE1,TLE_LINE2,SEMIMAJOR_AXIS,PERIOD,APOGEE,PERIGEE,DECAYED
52139.0,STARLINK-3730,PAYLOAD,2023-10-10 13:57:55,15.0884184,0.0001502,53.2175,74.5661,99.059,261.0572,8.7017e-05,1.097e-05,0.0,0 STARLINK-3730,1 52139U 22029BD  23283.58188870  .00001097  00000-0  87017-4 0  9992,2 52139  53.2175  74.5661 0001502  99.0590 261.0572 15.08841840 87775,6917.875,95.437,540.779,538.701,0.0
52139.0,STARLINK-3730,PAYLOAD,2023-10-10 17:08:40,15.08847698,0.0001395,53.2175,73.9739,87.2291,272.886,0.0001537,2.16e-05,0.0,0 STARLINK-3730,1 52139U 22029BD  23283.71436310  .00002160  00000-0  15370-3 0  9996,2 52139  53.2175  73.9739 0001395  87.2291 272.8860 15.08847698 87790,6917.857,95.437,540.687,538.757,0.0
52139.0,STARLINK-3730,PAYLOAD,2023-10-11 10:37:56,15.08837911,0.0002064,53.2174,70.7016,76.0256,284.0966,4.196e-05,3.8e-06,0.0,0 STARLINK-3730,1 52139U 22029BD  23284.44301495  .00000380  00000-0  41960-4 0  9999,2 52139  53.2174  70.7016 0002064  76.0256 284.0966 15.08837911 87905,6917.887,95.438,541.18,538.324,0.0
52139.0,STARLINK-3730,PAYLOAD,2023-10-11 13:48:43,15.08830655,0.0001517,53.2176,70.1069,77.8528,282.2634,-2.3835e-05,-6.67e-06,0.0,0 STARLINK-3730,1 52139U 22029BD  23284.57550048 -.00000667  00000-0 -23835-4 0  9994,2 52139  53.2176  70.1069 0001517  77.8528 282.2634 15.08830655 87924,6917.909,95.438,540.823,538.725,0.0
52139.0,STARLINK-3730,PAYLOAD,2023-10-12 13:39:29,15.08843591,0.0001573,53.218,65.65,87.388,272.7292,4.1997e-05,3.8e-06,0.0,0 STARLINK-3730,1 52139U 22029BD  23285.56909102  .00000380  00000-0  41997-4 0  9992,2 52139  53.2180  65.6500 0001573  87.3880 272.7292 15.08843591 88071,6917.869,95.437,540.823,538.646,0.0
52139.0,STARLINK-3730,PAYLOAD,2023-10-12 16:50:15,15.08847461,0.0001578,53.2183,65.0556,85.4217,274.6955,0.00012902,1.766e-05,0.0,0 STARLINK-3730,1 52139U 22029BD  23285.70156928  .00001766  00000-0  12902-3 0  9990,2 52139  53.2183  65.0556 0001578  85.4217 274.6955 15.08847461 88096,6917.858,95.437,540.814,538.631,0.0
52139.0,STARLINK-3730,PAYLOAD,2023-10-13 02:22:34,15.08842135,0.0001441,53.2172,63.2674,83.8994,276.2162,7.6644e-06,-1.66e-06,0.0,0 STARLINK-3730,1 52139U 22029BD  23286.09901135 -.00000166  00000-0  76644-5 0  9990,2 52139  53.2172  63.2674 0001441  83.8994 276.2162 15.08842135 88156,6917.874,95.437,540.736,538.742,0.0
52139.0,STARLINK-3730,PAYLOAD,2023-10-13 13:30:17,15.08833005,0.0001617,53.2164,61.1882,81.548,278.5695,5.0672e-05,5.18e-06,0.0,0 STARLINK-3730,1 52139U 22029BD  23286.56269976  .00000518  00000-0  50672-4 0  9994,2 52139  53.2164  61.1882 0001617  81.5480 278.5695 15.08833005 88225,6917.902,95.438,540.885,538.648,0.0
52139.0,STARLINK-3730,PAYLOAD,2023-10-13 16:41:03,15.08844012,0.0001512,53.2174,60.5916,73.2474,286.8684,0.00020528,2.981e-05,0.0,0 STARLINK-3730,1 52139U 22029BD  23286.69517485  .00002981  00000-0  20528-3 0  9991,2 52139  53.2174  60.5916 0001512  73.2474 286.8684 15.08844012 88244,6917.868,95.437,540.779,538.687,0.0
52139.0,STARLINK-3730,PAYLOAD,2023-10-14 13:21:04,15.08840638,0.0001448,53.2175,56.7262,86.7599,273.3559,8.8652e-05,1.123e-05,0.0,0 STARLINK-3730,1 52139U 22029BD  23287.55629638  .00001123  00000-0  88652-4 0  9991,2 52139  53.2175  56.7262 0001448  86.7599 273.3559 15.08840638 88377,6917.878,95.438,540.745,538.742,0.0
52139.0,STARLINK-3730,PAYLOAD,2023-10-14 18:07:12,15.08854278,0.0001562,53.2172,55.8337,88.9919,271.1253,0.00019055,2.747e-05,0.0,0 STARLINK-3730,1 52139U 22029BD  23287.75500901  .00002747  00000-0  19055-3 0  9997,2 52139  53.2172  55.8337 0001562  88.9919 271.1253 15.08854278 88400,6917.837,95.437,540.782,538.621,0.0
52139.0,STARLINK-3730,PAYLOAD,2023-10-15 14:47:14,15.08829612,0.0001355,53.2189,51.9651,109.1252,250.9887,0.00013977,1.937e-05,0.0,0 STARLINK-3730,1 52139U 22029BD  23288.61614427  .00001937  00000-0  13977-3 0  9999,2 52139  53.2189  51.9651 0001355 109.1252 250.9887 15.08829612 88536,6917.912,95.438,540.715,538.84,0.0
52139.0,STARLINK-3730,PAYLOAD,2023-10-16 14:38:01,15.08848702,0.0001617,53.2179,47.5079,102.771,257.3463,0.00021182,3.085e-05,0.0,0 STARLINK-3730,1 52139U 22029BD  23289.60973830  .00003085  00000-0  21182-3 0  9998,2 52139  53.2179  47.5079 0001617 102.7710 257.3463 15.08848702 88687,6917.854,95.437,540.837,538.6,0.0
52139.0,STARLINK-3730,PAYLOAD,2023-10-16 17:48:47,15.0885316,0.0001636,53.218,46.9128,103.8967,256.2208,0.00027875,4.153e-05,0.0,0 STARLINK-3730,1 52139U 22029BD  23289.74221599  .00004153  00000-0  27875-3 0  9993,2 52139  53.2180  46.9128 0001636 103.8967 256.2208 15.08853160 88706,6917.84,95.437,540.837,538.573,0.0
52139.0,STARLINK-3730,PAYLOAD,2023-10-17 11:18:02,15.08844263,0.0002068,53.2189,43.6396,118.9797,241.1403,0.00017261,2.46e-05,0.0,0 STARLINK-3730,1 52139U 22029BD  23290.47085977  .00002460  00000-0  17261-3 0  9990,2 52139  53.2189  43.6396 0002068 118.9797 241.1403 15.08844263 88810,6917.867,95.437,541.163,538.302,0.0
52139.0,STARLINK-3730,PAYLOAD,2023-10-18 00:01:07,15.0884606,0.0001545,53.2182,41.2643,96.3908,263.7261,0.00019477,2.814e-05,0.0,0 STARLINK-3730,1 52139U 22029BD  23291.00078016  .00002814  00000-0  19477-3 0  9990,2 52139  53.2182  41.2643 0001545  96.3908 263.7261 15.08846060 88891,6917.862,95.437,540.796,538.658,0.0
52139.0,STARLINK-3730,PAYLOAD,2023-10-18 11:08:49,15.0884228,0.0001772,53.2194,39.1846,105.8198,254.299,7.9785e-05,9.82e-06,0.0,0 STARLINK-3730,1 52139U 22029BD  23291.46446141  .00000982  00000-0  79785-4 0  9991,2 52139  53.2194  39.1846 0001772 105.8198 254.2990 15.08842280 88966,6917.873,95.437,540.964,538.513,0.0
52139.0,STARLINK-3730,PAYLOAD,2023-10-18 23:51:53,15.08852321,0.0001409,53.2192,36.8032,85.5535,274.5618,0.00014874,2.081e-05,0.0,0 STARLINK-3730,1 52139U 22029BD  23291.99437439  .00002081  00000-0  14874-3 0  9998,2 52139  53.2192  36.8032 0001409  85.5535 274.5618 15.08852321 89040,6917.843,95.437,540.682,538.733,0.0
52139.0,STARLINK-3730,PAYLOAD,2023-10-19 12:34:58,15.08851312,0.0001646,53.2191,34.4264,101.3959,258.7218,0.00019392,2.8e-05,0.0,0 STARLINK-3730,1 52139U 22029BD  23292.52429398  .00002800  00000-0  19392-3 0  9992,2 52139  53.2191  34.4264 0001646 101.3959 258.7218 15.08851312 89128,6917.846,95.437,540.849,538.572,0.0
52139.0,STARLINK-3730,PAYLOAD,2023-10-19 23:42:41,15.08844225,0.0001458,53.2169,32.3448,96.8319,263.2839,0.00019162,2.763e-05,0.0,0 STARLINK-3730,1 52139U 22029BD  23292.98797775  .00002763  00000-0  19162-3 0  9992,2 52139  53.2169  32.3448 0001458  96.8319 263.2839 15.08844225 89195,6917.867,95.437,540.741,538.724,0.0
52139.0,STARLINK-3730,PAYLOAD,2023-10-20 12:25:46,15.08830678,0.0001633,53.2182,29.9655,89.66,270.4579,-0.0001768,-3.1e-05,0.0,0 STARLINK-3730,1 52139U 22029BD  23293.51790354 -.00003100  00000-0 -17680-3 0  9999,2 52139  53.2182  29.9655 0001633  89.6600 270.4579 15.08830678 89277,6917.909,95.438,540.904,538.644,0.0
52139.0,STARLINK-3730,PAYLOAD,2023-10-20 15:36:33,15.08834696,0.0001785,53.2184,29.3681,89.572,270.5476,-0.00010365,-1.937e-05,0.0,0 STARLINK-3730,1 52139U 22029BD  23293.65038304 -.00001937  00000-0 -10365-3 0  9993,2 52139  53.2184  29.3681 0001785  89.5720 270.5476 15.08834696 89295,6917.897,95.438,540.996,538.527,0.0
52139.0,STARLINK-3730,PAYLOAD,2023-10-21 12:16:33,15.08844235,0.0001518,53.2162,25.5057,80.7227,279.3937,0.00034002,5.128e-05,0.0,0 STARLINK-3730,1 52139U 22029BD  23294.51150383  .00005128  00000-0  34002-3 0  9999,2 52139  53.2162  25.5057 0001518  80.7227 279.3937 15.08844235 89429,6917.867,95.437,540.783,538.682,0.0
52139.0,STARLINK-3730,PAYLOAD,2023-10-22 10:31:58,15.08836247,0.0002009,53.2181,21.3428,91.6795,268.4427,0.00015444,2.17e-05,0.0,0 STARLINK-3730,1 52139U 22029BD  23295.43887073  .00002170  00000-0  15444-3 0  9997,2 52139  53.2181  21.3428 0002009  91.6795 268.4427 15.08836247 89565,6917.892,95.438,541.147,538.367,0.0
52139.0,STARLINK-3730,PAYLOAD,2023-10-22 12:07:21,15.08835971,0.000146,53.2159,21.046,91.8475,268.2684,6.703e-05,7.79e-06,0.0,0 STARLINK-3730,1 52139U 22029BD  23295.50510804  .00000779  00000-0  67030-4 0  9992,2 52139  53.2159  21.0460 0001460  91.8475 268.2684 15.08835971 89577,6917.893,95.438,540.768,538.748,0.0
52139.0,STARLINK-3730,PAYLOAD,2023-10-23 11:58:08,15.08839068,0.0001505,53.2173,16.5826,96.8427,263.2737,7.8585e-05,9.63e-06,0.0,0 STARLINK-3730,1 52139U 22029BD  23296.49871100  .00000963  00000-0  78585-4 0  9992,2 52139  53.2173  16.5826 0001505  96.8427 263.2737 15.08839068 89722,6917.883,95.438,540.789,538.707,0.0
52139.0,STARLINK-3730,PAYLOAD,2023-10-24 11:48:55,15.08847058,0.0001418,53.2178,12.1234,98.8385,261.2767,0.00030243,4.529e-05,0.0,0 STARLINK-3730,1 52139U 22029BD  23297.49231066  .00004529  00000-0  30243-3 0  9994,2 52139  53.2178  12.1234 0001418  98.8385 261.2767 15.08847058 89875,6917.859,95.437,540.705,538.743,0.0
52139.0,STARLINK-3730,PAYLOAD,2023-10-25 11:39:42,15.0884675,0.0001344,53.2178,7.6632,96.2168,263.8977,0.00018598,2.674e-05,0.0,0 STARLINK-3730,1 52139U 22029BD  23298.48590925  .00002674  00000-0  18598-3 0  9994,2 52139  53.2178   7.6632 0001344  96.2168 263.8977 15.08846750 90023,6917.86,95.437,540.655,538.795,0.0
52139.0,STARLINK-3730,PAYLOAD,2023-10-26 11:30:29,15.08847735,0.0001435,53.2179,3.2035,98.068,262.0475,9.8964e-05,1.288e-05,0.0,0 STARLINK-3730,1 52139U 22029BD  23299.47950654  .00001288  00000-0  98964-4 0  9999,2 52139  53.2179   3.2035 0001435  98.0680 262.0475 15.08847735 90177,6917.857,95.437,540.714,538.729,0.0
52139.0,STARLINK-3730,PAYLOAD,2023-10-26 21:02:48,15.08846055,0.0001416,53.2177,1.4195,96.3434,263.772,3.5167e-05,2.72e-06,0.0,0 STARLINK-3730,1 52139U 22029BD  23299.87694578  .00000272  00000-0  35167-4 0  9991,2 52139  53.2177   1.4195 0001416  96.3434 263.7720 15.08846055 90231,6917.862,95.437,540.706,538.747,0.0
